{
  "norad_id": 68434,
  "name": "TRANSPORTER-16 OBJECT U",
  "history": [
    {
      "epoch": "2026-04-14T03:12:58.792320Z",
      "apogee_km": 512.8904656797695,
      "perigee_km": 509.9513802698293,
      "latitude_deg": -6.045466145086877e-05,
      "longitude_deg": 173.01323638014554,
      "height_km": 515.6196022002031,
      "semi_major_axis_km": 6889.557922974799,
      "eccentricity": 0.0002133,
      "inclination_deg": 97.4529,
      "raan_deg": 63.573,
      "arg_perigee_deg": 139.3021,
      "mean_anomaly_deg": 220.8372,
      "mean_motion_rev_day": 15.18153651
    }
  ]
}