{"fetched_at":"2026-04-16T17:13:58Z","count":4884,"tles":[{"name":"TRANSPORTER-16 OBJECT U","line1":"1 68434U 26067U   26104.13401380  .00002513  00000+0  12638-3 0  9992","line2":"2 68434  97.4529  63.5730 0002133 139.3021 220.8372 15.18153651  2221","category":"Other"}]}